[
    {
        "OBJECT_NAME": "ISS (ZARYA)",
        "OBJECT_ID": "1998-067A",
        "EPOCH": "2024-10-11T13:13:00.208704",
        "MEAN_MOTION": 15.49679507,
        "ECCENTRICITY": 0.0008407,
        "INCLINATION": 51.6388,
        "RA_OF_ASC_NODE": 99.0348,
        "ARG_OF_PERICENTER": 63.1082,
        "MEAN_ANOMALY": 41.0609,
        "EPHEMERIS_TYPE": 0,
        "CLASSIFICATION_TYPE": "U",
        "NORAD_CAT_ID": 25544,
        "ELEMENT_SET_NO": 999,
        "REV_AT_EPOCH": 47659,
        "BSTAR": 0.00064578,
        "MEAN_MOTION_DOT": 0.00036194,
        "MEAN_MOTION_DDOT": 0,
        "date_fetched": "2024-10-11T19:12:02.312943Z"
    },
    {
        "OBJECT_NAME": "ISS (ZARYA)",
        "OBJECT_ID": "1998-067A",
        "EPOCH": "2024-10-11T20:30:28.939104",
        "MEAN_MOTION": 15.49713209,
        "ECCENTRICITY": 0.0009265,
        "INCLINATION": 51.6375,
        "RA_OF_ASC_NODE": 97.5325,
        "ARG_OF_PERICENTER": 60.5565,
        "MEAN_ANOMALY": 299.6347,
        "EPHEMERIS_TYPE": 0,
        "CLASSIFICATION_TYPE": "U",
        "NORAD_CAT_ID": 25544,
        "ELEMENT_SET_NO": 999,
        "REV_AT_EPOCH": 47664,
        "BSTAR": 0.00068512,
        "MEAN_MOTION_DOT": 0.00038496,
        "MEAN_MOTION_DDOT": 0,
        "date_fetched": "2024-10-12T02:12:18.848205Z"
    },
    {
        "OBJECT_NAME": "ISS (ZARYA)",
        "OBJECT_ID": "1998-067A",
        "EPOCH": "2024-10-12T00:13:28.380864",
        "MEAN_MOTION": 15.49749772,
        "ECCENTRICITY": 0.0009107,
        "INCLINATION": 51.638,
        "RA_OF_ASC_NODE": 96.7653,
        "ARG_OF_PERICENTER": 60.8725,
        "MEAN_ANOMALY": 83.8386,
        "EPHEMERIS_TYPE": 0,
        "CLASSIFICATION_TYPE": "U",
        "NORAD_CAT_ID": 25544,
        "ELEMENT_SET_NO": 999,
        "REV_AT_EPOCH": 47666,
        "BSTAR": 0.0010603,
        "MEAN_MOTION_DOT": 0.00060068,
        "MEAN_MOTION_DDOT": 0,
        "date_fetched": "2024-10-12T07:12:40.177300Z"
    },
    {
        "OBJECT_NAME": "ISS (ZARYA)",
        "OBJECT_ID": "1998-067A",
        "EPOCH": "2024-10-12T04:14:46.511808",
        "MEAN_MOTION": 15.49732338,
        "ECCENTRICITY": 0.0009253,
        "INCLINATION": 51.6377,
        "RA_OF_ASC_NODE": 95.936,
        "ARG_OF_PERICENTER": 61.6494,
        "MEAN_ANOMALY": 298.5427,
        "EPHEMERIS_TYPE": 0,
        "CLASSIFICATION_TYPE": "U",
        "NORAD_CAT_ID": 25544,
        "ELEMENT_SET_NO": 999,
        "REV_AT_EPOCH": 47669,
        "BSTAR": 0.00055599,
        "MEAN_MOTION_DOT": 0.00031145,
        "MEAN_MOTION_DDOT": 0,
        "date_fetched": "2024-10-12T13:18:11.080059Z"
    },
    {
        "OBJECT_NAME": "ISS (ZARYA)",
        "OBJECT_ID": "1998-067A",
        "EPOCH": "2024-10-12T11:59:03.795936",
        "MEAN_MOTION": 15.49746027,
        "ECCENTRICITY": 0.0009173,
        "INCLINATION": 51.6376,
        "RA_OF_ASC_NODE": 94.3393,
        "ARG_OF_PERICENTER": 62.7011,
        "MEAN_ANOMALY": 297.4911,
        "EPHEMERIS_TYPE": 0,
        "CLASSIFICATION_TYPE": "U",
        "NORAD_CAT_ID": 25544,
        "ELEMENT_SET_NO": 999,
        "REV_AT_EPOCH": 47674,
        "BSTAR": 0.00045741,
        "MEAN_MOTION_DOT": 0.00025535,
        "MEAN_MOTION_DDOT": 0,
        "date_fetched": "2024-10-12T19:10:55.599525Z"
    },
    {
        "OBJECT_NAME": "ISS (ZARYA)",
        "OBJECT_ID": "1998-067A",
        "EPOCH": "2024-10-12T19:43:20.817408",
        "MEAN_MOTION": 15.49763544,
        "ECCENTRICITY": 0.0009179,
        "INCLINATION": 51.638,
        "RA_OF_ASC_NODE": 92.7424,
        "ARG_OF_PERICENTER": 63.7262,
        "MEAN_ANOMALY": 296.4669,
        "EPHEMERIS_TYPE": 0,
        "CLASSIFICATION_TYPE": "U",
        "NORAD_CAT_ID": 25544,
        "ELEMENT_SET_NO": 999,
        "REV_AT_EPOCH": 47679,
        "BSTAR": 0.00051475,
        "MEAN_MOTION_DOT": 0.00028824,
        "MEAN_MOTION_DDOT": 0,
        "date_fetched": "2024-10-13T07:12:43.003654Z"
    },
    {
        "OBJECT_NAME": "ISS (ZARYA)",
        "OBJECT_ID": "1998-067A",
        "EPOCH": "2024-10-13T22:37:01.734816",
        "MEAN_MOTION": 15.49818527,
        "ECCENTRICITY": 0.000919,
        "INCLINATION": 51.6386,
        "RA_OF_ASC_NODE": 87.1889,
        "ARG_OF_PERICENTER": 69.5113,
        "MEAN_ANOMALY": 66.9892,
        "EPHEMERIS_TYPE": 0,
        "CLASSIFICATION_TYPE": "U",
        "NORAD_CAT_ID": 25544,
        "ELEMENT_SET_NO": 999,
        "REV_AT_EPOCH": 47696,
        "BSTAR": 0.00044322,
        "MEAN_MOTION_DOT": 0.00024791,
        "MEAN_MOTION_DDOT": 0,
        "date_fetched": "2024-10-14T02:18:15.086993Z"
    },
    {
        "OBJECT_NAME": "ISS (ZARYA)",
        "OBJECT_ID": "1998-067A",
        "EPOCH": "2024-10-14T04:07:12.999936",
        "MEAN_MOTION": 15.49745034,
        "ECCENTRICITY": 0.0008258,
        "INCLINATION": 51.641,
        "RA_OF_ASC_NODE": 86.0538,
        "ARG_OF_PERICENTER": 70.7489,
        "MEAN_ANOMALY": 265.9019,
        "EPHEMERIS_TYPE": 0,
        "CLASSIFICATION_TYPE": "U",
        "NORAD_CAT_ID": 25544,
        "ELEMENT_SET_NO": 999,
        "REV_AT_EPOCH": 47699,
        "BSTAR": -0.00244,
        "MEAN_MOTION_DOT": -0.00136293,
        "MEAN_MOTION_DDOT": 0,
        "date_fetched": "2024-10-14T07:16:25.829546Z"
    },
    {
        "OBJECT_NAME": "ISS (ZARYA)",
        "OBJECT_ID": "1998-067A",
        "EPOCH": "2024-10-14T09:13:31.971648",
        "MEAN_MOTION": 15.49814641,
        "ECCENTRICITY": 0.0009245,
        "INCLINATION": 51.6375,
        "RA_OF_ASC_NODE": 85.0013,
        "ARG_OF_PERICENTER": 75.5296,
        "MEAN_ANOMALY": 8.7941,
        "EPHEMERIS_TYPE": 0,
        "CLASSIFICATION_TYPE": "U",
        "NORAD_CAT_ID": 25544,
        "ELEMENT_SET_NO": 999,
        "REV_AT_EPOCH": 47703,
        "BSTAR": -0.0049859,
        "MEAN_MOTION_DOT": -0.00274092,
        "MEAN_MOTION_DDOT": 0,
        "date_fetched": "2024-10-14T13:23:38.155421Z"
    },
    {
        "OBJECT_NAME": "ISS (ZARYA)",
        "OBJECT_ID": "1998-067A",
        "EPOCH": "2024-10-14T12:25:21.960192",
        "MEAN_MOTION": 15.49840441,
        "ECCENTRICITY": 0.0009014,
        "INCLINATION": 51.6401,
        "RA_OF_ASC_NODE": 84.3419,
        "ARG_OF_PERICENTER": 69.8722,
        "MEAN_ANOMALY": 38.2029,
        "EPHEMERIS_TYPE": 0,
        "CLASSIFICATION_TYPE": "U",
        "NORAD_CAT_ID": 25544,
        "ELEMENT_SET_NO": 999,
        "REV_AT_EPOCH": 47705,
        "BSTAR": 0.00032061,
        "MEAN_MOTION_DOT": 0.00017802,
        "MEAN_MOTION_DDOT": 0,
        "date_fetched": "2024-10-14T19:11:58.828305Z"
    },
    {
        "OBJECT_NAME": "ISS (ZARYA)",
        "OBJECT_ID": "1998-067A",
        "EPOCH": "2024-10-14T19:41:47.917536",
        "MEAN_MOTION": 15.49857439,
        "ECCENTRICITY": 0.0009136,
        "INCLINATION": 51.6377,
        "RA_OF_ASC_NODE": 82.8404,
        "ARG_OF_PERICENTER": 68.7676,
        "MEAN_ANOMALY": 291.4288,
        "EPHEMERIS_TYPE": 0,
        "CLASSIFICATION_TYPE": "U",
        "NORAD_CAT_ID": 25544,
        "ELEMENT_SET_NO": 999,
        "REV_AT_EPOCH": 47710,
        "BSTAR": 0.00043794,
        "MEAN_MOTION_DOT": 0.00024522,
        "MEAN_MOTION_DDOT": 0,
        "date_fetched": "2024-10-15T02:17:20.451169Z"
    },
    {
        "OBJECT_NAME": "ISS (ZARYA)",
        "OBJECT_ID": "1998-067A",
        "EPOCH": "2024-10-15T04:10:06.728736",
        "MEAN_MOTION": 15.49875993,
        "ECCENTRICITY": 0.0009246,
        "INCLINATION": 51.6391,
        "RA_OF_ASC_NODE": 81.0881,
        "ARG_OF_PERICENTER": 71.391,
        "MEAN_ANOMALY": 99.6592,
        "EPHEMERIS_TYPE": 0,
        "CLASSIFICATION_TYPE": "U",
        "NORAD_CAT_ID": 25544,
        "ELEMENT_SET_NO": 999,
        "REV_AT_EPOCH": 47715,
        "BSTAR": 0.00042626,
        "MEAN_MOTION_DOT": 0.00023871,
        "MEAN_MOTION_DDOT": 0,
        "date_fetched": "2024-10-15T07:15:41.459576Z"
    }
]