1 25544U 98067A   24289.17368899  .00023871  00000-0  42626-3 0  9990
2 25544  51.6391  81.0881 0009246  71.3910  99.6592 15.49875993477159
1 25544U 98067A   24288.82069349  .00024522  00000-0  43794-3 0  9990
2 25544  51.6377  82.8404 0009136  68.7676 291.4288 15.49857439477104
1 25544U 98067A   24288.51761528  .00017802  00000-0  32061-3 0  9992
2 25544  51.6401  84.3419 0009014  69.8722  38.2029 15.49840441477053
1 25544U 98067A   24288.38439782 -.00274092  00000-0 -49859-2 0  9991
2 25544  51.6375  85.0013 0009245  75.5296   8.7941 15.49814641477033
1 25544U 98067A   24288.17167824 -.00136293  00000-0 -24400-2 0  9998
2 25544  51.6410  86.0538 0008258  70.7489 265.9019 15.49745034476996
1 25544U 98067A   24287.94238119  .00024791  00000-0  44322-3 0  9991
2 25544  51.6386  87.1889 0009190  69.5113  66.9892 15.49818527476968
1 25544U 98067A   24286.82176872  .00028824  00000-0  51475-3 0  9992
2 25544  51.6380  92.7424 0009179  63.7262 296.4669 15.49763544476798
1 25544U 98067A   24286.49934949  .00025535  00000-0  45741-3 0  9997
2 25544  51.6376  94.3393 0009173  62.7011 297.4911 15.49746027476744
1 25544U 98067A   24286.17692722  .00031145  00000-0  55599-3 0  9998
2 25544  51.6377  95.9360 0009253  61.6494 298.5427 15.49732338476696
1 25544U 98067A   24286.00935626  .00060068  00000-0  10603-2 0  9995
2 25544  51.6380  96.7653 0009107  60.8725  83.8386 15.49749772476666
1 25544U 98067A   24285.85450161  .00038496  00000-0  68512-3 0  9996
2 25544  51.6375  97.5325 0009265  60.5565 299.6347 15.49713209476647
1 25544U 98067A   24285.55069686  .00036194  00000-0  64578-3 0  9992
2 25544  51.6388  99.0348 0008407  63.1082  41.0609 15.49679507476599
